{
  "norad_id": 69043,
  "name": "STARLINK-37571",
  "history": [
    {
      "epoch": "2026-05-13T20:00:01.999008Z",
      "apogee_km": 314.3559579897992,
      "perigee_km": 312.38597804401434,
      "latitude_deg": -48.23240660007139,
      "longitude_deg": -175.38696481002796,
      "height_km": 332.935612468056,
      "semi_major_axis_km": 6691.5079680169065,
      "eccentricity": 0.0001472,
      "inclination_deg": 97.288,
      "raan_deg": 348.0228,
      "arg_perigee_deg": 93.7674,
      "mean_anomaly_deg": 217.7607,
      "mean_motion_rev_day": 15.86049593
    }
  ]
}