[ {"name": "STARLINK-37571", "line1": "1 69043U 26101U   26133.83335647 -.01923352  00000+0 -89731-2 0  9992", "line2": "2 69043  97.2880 348.0228 0001472  93.7674 217.7607 15.86049593  2445"}]